satname,norad_id,inclination_deg,eccentricity,mean_motion_rev_per_day,perigee_km,apogee_km,l1,l2
STARLINK-1297,45395,53.0523,0.0002492,15.4724583,423.09183973735344,426.48241712296385,1 45395U 20019AM  26033.43319246  .00087304  00000+0  16764-2 0  9991,2 45395  53.0523 300.0335 0002492 117.3675 242.7586 15.47245830323941
STARLINK-1307,45397,53.0569,0.0001519,15.45701623,428.28321938233694,430.3513239900758,1 45397U 20019AP  26033.44476876  .00020030  00000+0  41589-3 0  9994,2 45397  53.0569 299.4840 0001519 119.3184 240.7974 15.45701623324597
STARLINK-1255,45399,53.0449,0.000714,15.45083659,426.2704495631715,435.9940860776196,1 45399U 20019AR  26033.38468969  .00081168  00000+0  16794-2 0  9991,2 45399  53.0449 271.7946 0007140 116.1572 244.0169 15.45083659324964
STARLINK-1260,45404,53.1564,0.0003348,15.28993183,476.52506784105026,481.1164867687339,1 45404U 20019AW  26033.09920792 -.00082013  00000+0 -28927-2 0  9996,2 45404  53.1564 294.5346 0003348  89.5270 270.6114 15.28993183324521
STARLINK-1263,45405,53.155,0.0001509,15.29366315,476.6708866362933,478.73997988265,1 45405U 20019AX  26033.15146453  .00003737  00000+0  14173-3 0  9991,2 45405  53.1550 294.3056 0001509  96.0518 264.0655 15.29366315324538
STARLINK-1265,45406,53.1559,0.0001253,15.29359346,476.86722075814305,478.5853000912066,1 45406U 20019AY  26033.03506864  .00000830  00000+0  41080-4 0  9994,2 45406  53.1559 294.9171 0001253  90.0417 270.0726 15.29359346324510
STARLINK-1278,45408,53.0487,0.0005872,15.48776353,416.31251360685746,424.2966033731482,1 45408U 20019BA  26033.66670139  .00134669  00000+0  24315-2 0  9990,2 45408  53.0487 299.0321 0005872  79.9112 142.0378 15.48776353  5950
STARLINK-1296,45412,53.1549,0.0001815,15.29345534,476.5231919921389,479.01188533967525,1 45412U 20019BE  26033.66670139  .00059329  00000+0  20526-2 0  9994,2 45412  53.1549 291.9148 0001815  73.5084 186.1833 15.29345534  5692
STARLINK-1298,45413,53.041,0.0006514,15.78835133,329.36784546940453,338.1120787756581,1 45413U 20019BF  26033.66670139  .00197493  00000+0  10755-2 0  9993,2 45413  53.0410 231.5392 0006514 176.9962 183.2727 15.78835133  5877
STARLINK-1309,45414,53.0703,9.42e-05,15.39395329,447.25322101483107,448.5392456759937,1 45414U 20019BG  26033.66670139  .01641392  00000+0  37540-1 0  9997,2 45414  53.0703 291.7895 0000942  95.5729  91.2587 15.39395329  5591
STARLINK-1316,45415,53.16,0.0001558,15.29943675,474.91264500889247,477.0483880270385,1 45415U 20019BH  26033.01270118  .00087060  00000+0  29405-2 0  9997,2 45415  53.1600 295.0154 0001558 103.6853 256.4322 15.29943675324539
STARLINK-1318,45416,53.0365,0.0004732,15.87150453,307.11146471729353,313.44137917982516,1 45416U 20019BJ  26033.66670139  .00300257  00000+0  10924-2 0  9998,2 45416  53.0365 218.2244 0004732 231.5388  72.4071 15.87150453  6009
STARLINK-1286,45417,53.0517,0.0002252,15.48188237,420.4947522131388,423.5575456954284,1 45417U 20019BK  26033.13095003  .00031772  00000+0  59993-3 0  9995,2 45417  53.0517 301.2213 0002252  71.8754 288.2499 15.48188237324715
STARLINK-1308,45419,53.0572,0.0002212,15.42227702,438.02805182983775,441.04419041862275,1 45419U 20019BM  26033.06507129  .00018743  00000+0  43807-3 0  9996,2 45419  53.0572 322.0350 0002212 102.4388 257.6864 15.42227702324161
STARLINK-1329,45531,53.052,0.0007935,15.48689927,415.162720727395,425.95224887477343,1 45531U 20025A   26033.62234535  .00109335  00000+0  19870-2 0  9998,2 45531  53.0520 250.2606 0007935 127.4274 232.7456 15.48689927320000
STARLINK-1338,45532,53.0514,0.0005432,15.47360502,420.7558571210466,428.14618874916323,1 45532U 20025B   26033.33156053  .00116997  00000+0  22255-2 0  9998,2 45532  53.0514 254.7034 0005432 141.5227 218.6168 15.47360502319918
STARLINK-1350,45535,53.0721,0.0001255,15.35108996,459.7385046832733,461.4550268584826,1 45535U 20025E   26033.45022603  .00008728  00000+0  26321-3 0  9998,2 45535  53.0721 198.5170 0001255 116.9479 243.1651 15.35108996320748
STARLINK-1362,45538,53.103,0.000115,15.17855245,511.53146864536484,513.1162746458431,1 45538U 20025H   26033.66670139  .01520336  00000+0  67538-1 0  9995,2 45538  53.1030 263.3261 0001150 113.4867 183.6974 15.17855245  5599
STARLINK-1368,45540,53.1019,0.0001118,15.17759973,511.8418323638498,513.3826038890229,1 45540U 20025K   26033.66670139  .00054689  00000+0  26707-2 0  9994,2 45540  53.1019 263.4605 0001118 119.8822 233.1044 15.17759973  5799
STARLINK-1371,45542,53.0518,0.0004698,15.42156503,436.5429191009789,442.9490019306804,1 45542U 20025M   26033.35025695  .00085918  00000+0  19613-2 0  9990,2 45542  53.0518 257.5708 0004698 132.9978 227.1421 15.42156503319873
STARLINK-1372,45543,53.1113,0.0001636,15.20064561,504.5195055126769,506.7718792096184,1 45543U 20025N   26033.66670139  .01409961  00000+0  59192-1 0  9998,2 45543  53.1113 263.5058 0001636 119.3881 168.4021 15.20064561  5796
STARLINK-1373,45544,53.0513,0.0003252,15.43802072,432.68462264357277,437.1158220529878,1 45544U 20025P   26033.62588873  .00090144  00000+0  19460-2 0  9991,2 45544  53.0513 256.5577 0003252 155.0411 205.0752 15.43802072319913
STARLINK-1294,45551,53.038,0.0006645,15.85077871,311.6571557349689,320.5538039907069,1 45551U 20025W   26033.66670139  .00295030  00000+0  11870-2 0  9998,2 45551  53.0380 154.0748 0006645 327.5100 147.1293 15.85077871  5897
STARLINK-1327,45555,53.0502,0.0002203,15.46716438,424.8402972606009,427.8383495286889,1 45555U 20025AA  26033.58633874  .00092049  00000+0  17986-2 0  9997,2 45555  53.0502 235.1909 0002203 169.8784 190.2267 15.46716438320209
STARLINK-1356,45564,53.0521,0.0001386,15.3969338,446.0693248794323,447.9612570944946,1 45564U 20025AK  26033.29180977  .00083909  00000+0  20795-2 0  9993,2 45564  53.0521 241.8128 0001386 137.7239 222.3872 15.39693380320084
STARLINK-1357,45565,53.0561,0.0003543,15.48224568,419.5105056129787,424.3290258371708,1 45565U 20025AL  26033.66670139  .00073225  00000+0  13627-2 0  9995,2 45565  53.0561 206.5198 0003543 154.9457 131.5627 15.48224568  5856
STARLINK-1361,45567,53.053,6.42e-05,15.40309896,444.75591291806177,445.63202861470836,1 45567U 20025AN  26033.61308265  .00088767  00000+0  21538-2 0  9997,2 45567  53.0530 240.7749 0000642 116.4647 243.6423 15.40309896320137
STARLINK-1363,45568,53.0464,0.000187,15.66887116,366.55539578741445,369.0783825419612,1 45568U 20025AP  26033.66670139  .00152152  00000+0  13890-2 0  9997,2 45568  53.0464 211.4782 0001870 313.0157  12.1346 15.66887116  5947
STARLINK-1366,45569,53.0469,0.0001682,15.66643375,367.3817817614836,369.6513560220583,1 45569U 20025AQ  26033.66670139  .00151162  00000+0  13938-2 0  9991,2 45569  53.0469 212.1207 0001682 294.3889   9.1755 15.66643375  5876
STARLINK-1376,45570,53.1599,0.000136,15.29369401,476.76381734565075,478.6286039789511,1 45570U 20025AR  26032.84181117  .00007889  00000+0  28533-3 0  9999,2 45570  53.1599 244.0985 0001360  84.5327 275.5829 15.29369401320010
STARLINK-1320,45572,53.0509,0.0005894,15.61007542,380.7594331836108,388.7315190464551,1 45572U 20025AT  26033.49373539  .00130158  00000+0  15020-2 0  9996,2 45572  53.0509 158.4729 0005894 260.0163 100.0184 15.61007542321299
STARLINK-1321,45573,53.0519,0.0003679,15.41846255,438.15188372167904,443.16915493640136,1 45573U 20025AU  26032.92570721  .00015889  00000+0  37765-3 0  9990,2 45573  53.0519 228.8566 0003679 135.9911 224.1387 15.41846255319933
STARLINK-1331,45578,53.0539,0.0001687,15.35270179,458.9644928824864,461.271720155426,1 45578U 20025AZ  26033.66670139  .01390716  00000+0  36334-1 0  9996,2 45578  53.0539 231.8986 0001687  88.3038  79.1161 15.35270179  5746
STARLINK-1333,45580,53.1605,0.0001522,15.30196051,474.1837784673098,476.26994242643013,1 45580U 20025BB  26032.90086829  .00001339  00000+0  57355-4 0  9990,2 45580  53.1605 244.0410 0001522  78.9505 281.1667 15.30196051320022
STARLINK-1335,45581,53.0547,0.0001956,15.06402655,545.8488241713194,548.5580173439193,1 45581U 20025BC  26032.96884196  .00000443  00000+0  48632-4 0  9993,2 45581  53.0547 236.9750 0001956  91.6148 268.5065 15.06402655320125
STARLINK-1337,45582,53.054,0.0001383,15.44228381,432.70419625932846,434.58833551067164,1 45582U 20025BD  26033.66670139  .01578511  00000+0  30371-1 0  9997,2 45582  53.0540 230.9593 0001383 106.2817   1.0150 15.44228381  5745
STARLINK-1347,45586,53.0484,0.0003358,15.46879332,423.5768357302477,428.14640120240983,1 45586U 20025BH  26033.66670139  .00097980  00000+0  19016-2 0  9990,2 45586  53.0484 197.7026 0003358 200.2191  68.6440 15.46879332  5809
STARLINK-1364,45589,53.0535,4.65e-05,15.42795611,437.5459999955201,438.1798879903117,1 45589U 20025BL  26033.00002315  .00131283  00000+0  29121-2 0  9999,2 45589  53.0535 233.5041 0000465 116.3798 183.7891 15.42795611  5544
STARLINK-1365,45590,53.0536,0.0001464,15.41932956,439.4066739808386,441.40314305165157,1 45590U 20025BM  26033.05279304  .00032410  00000+0  75671-3 0  9994,2 45590  53.0536 262.8282 0001464 150.1706 209.9382 15.41932956319788
STARLINK-1443,45660,53.0549,0.0001494,15.06394331,546.1942829909403,548.2635823316195,1 45660U 20035D   26033.26095991  .00000689  00000+0  65137-4 0  9994,2 45660  53.0549 225.6631 0001494  93.8783 266.2377 15.06394331313397
STARLINK-1446,45663,53.025,0.0003825,15.41283722,439.7107296423228,444.928378906342,1 45663U 20035G   26033.61926454  .00021608  00000+0  51934-3 0  9996,2 45663  53.0250 165.7639 0003825 148.7901 211.3330 15.41283722314260
STARLINK-1448,45665,53.053,8.22e-05,15.45097716,430.5312496094484,431.6506866874133,1 45665U 20035J   26033.66670139  .00000940  00000+0  28411-4 0  9990,2 45665  53.0530 220.4552 0000822  31.5442 287.4537 15.45097716  5742
STARLINK-1451,45668,53.0515,0.0003484,15.08099021,539.5982136904322,544.4201715574536,1 45668U 20035M   26033.51375010  .00018720  00000+0  12152-2 0  9995,2 45668  53.0515 224.6383 0003484 140.2711 219.8535 15.08099021313435
